     2.100          NAVIGATION                              RINEX VERSION / TYPE
fic2rin                                 10/26/2016 00:05:31 PGM / RUN BY / DATE
                                                            END OF HEADER
17 16 10 25  4  0  0.0 -.200475100428D-03  .568434188608D-12  .000000000000D+00
     .810000000000D+02  .211250000000D+02  .443839916285D-08 -.102965436389D+01
     .120513141155D-05  .113422517898D-01  .499002635479D-05  .515375825500D+04
     .187200000000D+06  .558793544769D-08  .360890554003D+00  .223517417908D-06
     .978082945241D+00  .294656250000D+03 -.191723044137D+01 -.827427322812D-08
     .112147528538D-09  .100000000000D+01  .192000000000D+04  .000000000000D+00
     .240000000000D+01  .000000000000D+00 -.107102096081D-07  .810000000000D+02
     .180006000000D+06  .400000000000D+01
18 16 10 25  4  0  0.0  .570015050471D-03  .341060513165D-11  .000000000000D+00
     .720000000000D+02 -.198125000000D+02  .522021744301D-08  .551356728415D+00
    -.101886689663D-05  .172548153205D-01  .111106783152D-04  .515372792053D+04
     .187200000000D+06 -.257045030594D-06  .237170539219D+01  .000000000000D+00
     .925279854900D+00  .149812500000D+03 -.185421340183D+01 -.860750139413D-08
    -.142863093678D-11  .100000000000D+01  .192000000000D+04  .000000000000D+00
     .240000000000D+01  .000000000000D+00 -.111758708954D-07  .720000000000D+02
     .180006000000D+06  .400000000000D+01
19 16 10 25  4  0  0.0 -.521178357303D-03  .682121026330D-12  .000000000000D+00
     .790000000000D+02  .121250000000D+02  .440625496678D-08  .211659894774D+01
     .284984707832D-06  .103825265542D-01  .499002635479D-05  .515363047600D+04
     .187200000000D+06 -.104308128357D-06  .409242313785D+00 -.223517417908D-06
     .975215930092D+00  .294812500000D+03  .880396982560D+00 -.810462330438D-08
     .875036448780D-10  .100000000000D+01  .192000000000D+04  .000000000000D+00
     .240000000000D+01  .000000000000D+00 -.149011611938D-07  .790000000000D+02
     .180006000000D+06  .400000000000D+01
20 16 10 25  4  0  0.0  .442552380264D-03  .193267624127D-11  .000000000000D+00
     .230000000000D+02 -.193125000000D+02  .502628079334D-08 -.187710606118D+01
    -.823289155960D-06  .474214972928D-02  .109262764454D-04  .515360118675D+04
     .187200000000D+06  .800937414169D-07  .232010625856D+01  .707805156708D-07
     .926549214288D+00  .143968750000D+03  .146867569619D+01 -.821534220198D-08
     .135719938995D-09  .100000000000D+01  .192000000000D+04  .000000000000D+00
     .240000000000D+01  .000000000000D+00 -.838190317154D-08  .230000000000D+02
     .180006000000D+06  .400000000000D+01
21 16 10 25  4  0  0.0 -.532931182534D-03 -.113686837722D-12  .000000000000D+00
     .370000000000D+02 -.824375000000D+02  .517414409530D-08  .150745041010D+01
    -.476092100143D-05  .233668128494D-01  .571087002754D-05  .515380631256D+04
     .187200000000D+06 -.175088644028D-06  .132997271875D+01 -.558793544769D-06
     .937304530953D+00  .263156250000D+03 -.174772459001D+01 -.862178770349D-08
    -.229652423088D-09  .100000000000D+01  .192000000000D+04  .000000000000D+00
     .240000000000D+01  .000000000000D+00 -.977888703346D-08  .370000000000D+02
     .180006000000D+06  .400000000000D+01
22 16 10 25  4  0  0.0  .209268182516D-03 -.105728759081D-10  .000000000000D+00
     .770000000000D+02 -.956250000000D+01  .511699885783D-08 -.151875352961D+01
    -.346451997757D-06  .734470400494D-02  .102855265141D-04  .515369788170D+04
     .187200000000D+06  .124797224998D-06  .237203650907D+01  .145286321640D-06
     .923239471853D+00  .158156250000D+03 -.185373762284D+01 -.829998858498D-08
     .900037490174D-10  .100000000000D+01  .192000000000D+04  .000000000000D+00
     .240000000000D+01  .000000000000D+00 -.176951289177D-07  .770000000000D+02
     .180006000000D+06  .400000000000D+01
23 16 10 25  4  0  0.0 -.194496009499D-03 -.125055521494D-11  .000000000000D+00
     .340000000000D+02  .542187500000D+02  .508271171534D-08 -.225941797248D+01
     .248290598392D-05  .111320699798D-01  .621937215328D-05  .515359548569D+04
     .187200000000D+06  .149011611938D-06 -.283170542326D+01 -.130385160446D-06
     .945604183090D+00  .252062500000D+03 -.252454428810D+01 -.829213111483D-08
     .387158983869D-09  .100000000000D+01  .192000000000D+04  .000000000000D+00
     .240000000000D+01  .000000000000D+00 -.200234353542D-07  .340000000000D+02
     .180006000000D+06  .400000000000D+01
24 16 10 25  4  0  0.0 -.251131132245D-04 -.568434188608D-12  .000000000000D+00
     .780000000000D+02 -.188750000000D+02  .507235414105D-08 -.282274370706D+01
    -.103190541267D-05  .484307238366D-02  .666454434395D-05  .515371823120D+04
     .187200000000D+06 -.391155481339D-07 -.180666081664D+01 -.968575477600D-07
     .947529535426D+00  .245531250000D+03  .394949302789D+00 -.831891794490D-08
    -.304298389535D-09  .100000000000D+01  .192000000000D+04  .000000000000D+00
     .240000000000D+01  .000000000000D+00  .232830643654D-08  .780000000000D+02
     .180006000000D+06  .400000000000D+01
25 16 10 25  4  0  0.0 -.269761309028D-03 -.682121026330D-11  .000000000000D+00
     .400000000000D+02  .178437500000D+02  .402445334892D-08  .136446600541D+01
     .979751348495D-06  .562851550058D-02  .105611979961D-04  .515369017601D+04
     .187200000000D+06 -.707805156708D-07 -.729850155977D+00  .121071934700D-06
     .978232566650D+00  .183625000000D+03  .770977318231D+00 -.789997192268D-08
    -.642883921553D-10  .100000000000D+01  .192000000000D+04  .000000000000D+00
     .240000000000D+01  .000000000000D+00  .558793544769D-08  .400000000000D+02
     .180006000000D+06  .400000000000D+01
26 16 10 25  4  0  0.0 -.491774175316D-03 -.545696821064D-11  .000000000000D+00
     .840000000000D+02  .521875000000D+01  .447911514455D-08  .100599260608D+01
     .361353158951D-06  .111775333062D-02  .973045825958D-05  .515360280037D+04
     .187200000000D+06  .167638063431D-07 -.741477408390D+00 -.521540641785D-07
     .960115844747D+00  .187656250000D+03 -.186803956495D+00 -.804104922769D-08
    -.129648257513D-09  .100000000000D+01  .192000000000D+04  .000000000000D+00
     .340000000000D+01  .000000000000D+00  .745058059692D-08  .840000000000D+02
     .180006000000D+06  .400000000000D+01
27 16 10 25  4  0  0.0  .156389083713D-03  .511590769747D-11  .000000000000D+00
     .480000000000D+02  .300625000000D+02  .434946688704D-08 -.964368231613D+00
     .154227018356D-05  .387148081791D-02  .560656189919D-05  .515365375137D+04
     .187200000000D+06  .819563865662D-07  .310136074161D+00 -.149011611938D-07
     .973044150669D+00  .280250000000D+03  .327497952279D+00 -.811962392921D-08
     .169649923743D-09  .100000000000D+01  .192000000000D+04  .000000000000D+00
     .240000000000D+01  .000000000000D+00  .139698386192D-08  .480000000000D+02
     .180006000000D+06  .400000000000D+01
28 16 10 25  4  0  0.0  .561872031540D-03  .284217094304D-11  .000000000000D+00
     .260000000000D+02  .273125000000D+02  .393909265045D-08 -.132596839305D+00
     .150874257088D-05  .200154600898D-01  .967830419540D-05  .515363462830D+04
     .187200000000D+06 -.275671482086D-06 -.653562490610D+00  .763684511185D-07
     .989416603162D+00  .213718750000D+03 -.160714368657D+01 -.809426573009D-08
    -.750031241812D-11  .100000000000D+01  .192000000000D+04  .000000000000D+00
     .240000000000D+01  .000000000000D+00 -.111758708954D-07  .260000000000D+02
     .180006000000D+06  .400000000000D+01
29 16 10 25  4  0  0.0  .646327622235D-03 -.159161572810D-11  .000000000000D+00
     .900000000000D+02  .272812500000D+02  .433125184260D-08  .107468746329D+01
     .134855508804D-05  .499857240357D-03  .524893403053D-05  .515372716522D+04
     .187200000000D+06 -.223517417908D-07  .370765599213D+00  .223517417908D-07
     .979105930206D+00  .287031250000D+03  .210101134641D-01 -.812140971788D-08
     .182150444440D-09  .100000000000D+01  .192000000000D+04  .000000000000D+00
     .240000000000D+01  .000000000000D+00 -.102445483208D-07  .900000000000D+02
     .180006000000D+06  .400000000000D+01
30 16 10 25  4  0  0.0  .155176967382D-03  .113686837722D-11  .000000000000D+00
     .700000000000D+02 -.184062500000D+02  .503806699857D-08  .249976085833D+01
    -.908970832825D-06  .239851337392D-02  .677816569805D-05  .515375601006D+04
     .187200000000D+06 -.614672899246D-07 -.171485182159D+01  .670552253723D-07
     .950219923697D+00  .245000000000D+03 -.312357874996D+01 -.831856078716D-08
    -.269296931584D-09  .100000000000D+01  .192000000000D+04  .000000000000D+00
     .240000000000D+01  .000000000000D+00  .372529029846D-08  .700000000000D+02
     .180006000000D+06  .400000000000D+01
31 16 10 25  4  0  0.0  .240592285991D-03 -.204636307899D-11  .000000000000D+00
     .900000000000D+02 -.255000000000D+02  .462019244956D-08  .234844135353D+01
    -.110641121864D-05  .839683704544D-02  .657327473164D-05  .515357771873D+04
     .187200000000D+06  .186264514923D-07 -.174684697814D+01  .158324837685D-06
     .969241239531D+00  .257687500000D+03 -.367697903888D+00 -.811105214359D-08
    -.379301513716D-09  .100000000000D+01  .192000000000D+04  .000000000000D+00
     .340000000000D+01  .000000000000D+00 -.135041773319D-07  .900000000000D+02
     .180006000000D+06  .400000000000D+01
32 16 10 25  4  0  0.0 -.168754719198D-03 -.163709046319D-10  .000000000000D+00
     .950000000000D+02  .512812500000D+02  .483341561688D-08 -.468495180259D+00
     .275485217571D-05  .615861616097D-03  .683777034283D-05  .515365564156D+04
     .187200000000D+06 -.186264514923D-07 -.283339403449D+01 -.186264514923D-08
     .959255438257D+00  .247781250000D+03 -.243573072022D+01 -.821855662159D-08
     .311441544219D-09  .100000000000D+01  .192000000000D+04  .000000000000D+00
     .340000000000D+01  .000000000000D+00  .465661287308D-09  .950000000000D+02
     .180006000000D+06  .400000000000D+01
